{
  "name": "SATGUS",
  "line1": "1 62713U 25009DJ  26064.23663097  .00010792  00000+0  87740-3 0  9996",
  "line2": "2 62713  97.7093 146.5398 0005457 110.0650 250.1161 14.99741548 61977",
  "fetched_at": "2026-03-06T00:29:05.962077+00:00"
}